[{"OBJECT_NAME":"STARLINK-5932","OBJECT_ID":"2023-037AF","EPOCH":"2026-03-09T21:29:17.319840","MEAN_MOTION":14.98330775,"ECCENTRICITY":0.00027938,"INCLINATION":69.9983,"RA_OF_ASC_NODE":283.8207,"ARG_OF_PERICENTER":270.9348,"MEAN_ANOMALY":89.1491,"EPHEMERIS_TYPE":0,"CLASSIFICATION_TYPE":"U","NORAD_CAT_ID":55943,"ELEMENT_SET_NO":999,"REV_AT_EPOCH":16401,"BSTAR":-2.0500938e-5,"MEAN_MOTION_DOT":-3.38e-6,"MEAN_MOTION_DDOT":0},{"OBJECT_NAME":"FENGYUN 1C DEB","OBJECT_ID":"1999-025XU","EPOCH":"2026-03-09T14:41:45.749184","MEAN_MOTION":14.51911005,"ECCENTRICITY":0.0242057,"INCLINATION":98.7565,"RA_OF_ASC_NODE":289.113,"ARG_OF_PERICENTER":5.0676,"MEAN_ANOMALY":56.028,"EPHEMERIS_TYPE":0,"CLASSIFICATION_TYPE":"U","NORAD_CAT_ID":30259,"ELEMENT_SET_NO":999,"REV_AT_EPOCH":734,"BSTAR":0.00035048,"MEAN_MOTION_DOT":2.01e-5,"MEAN_MOTION_DDOT":0}]
